CCSDS_OMM_VERS = 2.0
CREATION_DATE  = 
ORIGINATOR     = 

OBJECT_NAME    = CORAL
OBJECT_ID      = 1998-067YA
CENTER_NAME    = EARTH
REF_FRAME      = TEME
TIME_SYSTEM    = UTC
MEAN_ELEMENT_THEORY = SGP/SGP4

EPOCH          = 2026-04-01T01:08:22.495776
MEAN_MOTION    = 15.58243212
ECCENTRICITY   = .0013201
INCLINATION    = 51.6293
RA_OF_ASC_NODE = 319.7077
ARG_OF_PERICENTER = 257.1133
MEAN_ANOMALY   = 102.8385

EPHEMERIS_TYPE = 0
CLASSIFICATION_TYPE = U
NORAD_CAT_ID   = 67684
ELEMENT_SET_NO = 999
REV_AT_EPOCH   = 827
BSTAR          = .13811E-2
MEAN_MOTION_DOT = .10783E-2
MEAN_MOTION_DDOT = 0

CCSDS_OMM_VERS = 2.0
CREATION_DATE  = 
ORIGINATOR     = 

OBJECT_NAME    = GXIBA-1
OBJECT_ID      = 1998-067YB
CENTER_NAME    = EARTH
REF_FRAME      = TEME
TIME_SYSTEM    = UTC
MEAN_ELEMENT_THEORY = SGP/SGP4

EPOCH          = 2026-04-01T01:10:32.563200
MEAN_MOTION    = 15.54306639
ECCENTRICITY   = .0012232
INCLINATION    = 51.6319
RA_OF_ASC_NODE = 320.4680
ARG_OF_PERICENTER = 264.1880
MEAN_ANOMALY   = 95.7716

EPHEMERIS_TYPE = 0
CLASSIFICATION_TYPE = U
NORAD_CAT_ID   = 67685
ELEMENT_SET_NO = 999
REV_AT_EPOCH   = 826
BSTAR          = .8448E-3
MEAN_MOTION_DOT = .56374E-3
MEAN_MOTION_DDOT = 0

CCSDS_OMM_VERS = 2.0
CREATION_DATE  = 
ORIGINATOR     = 

OBJECT_NAME    = UITMSAT-2
OBJECT_ID      = 1998-067YC
CENTER_NAME    = EARTH
REF_FRAME      = TEME
TIME_SYSTEM    = UTC
MEAN_ELEMENT_THEORY = SGP/SGP4

EPOCH          = 2026-04-01T00:46:33.222144
MEAN_MOTION    = 15.55338997
ECCENTRICITY   = .0009322
INCLINATION    = 51.6314
RA_OF_ASC_NODE = 320.3591
ARG_OF_PERICENTER = 237.1849
MEAN_ANOMALY   = 122.8245

EPHEMERIS_TYPE = 0
CLASSIFICATION_TYPE = U
NORAD_CAT_ID   = 67686
ELEMENT_SET_NO = 999
REV_AT_EPOCH   = 826
BSTAR          = .98495E-3
MEAN_MOTION_DOT = .68374E-3
MEAN_MOTION_DDOT = 0

CCSDS_OMM_VERS = 2.0
CREATION_DATE  = 
ORIGINATOR     = 

OBJECT_NAME    = HMU-SAT2
OBJECT_ID      = 1998-067YD
CENTER_NAME    = EARTH
REF_FRAME      = TEME
TIME_SYSTEM    = UTC
MEAN_ELEMENT_THEORY = SGP/SGP4

EPOCH          = 2026-04-01T01:18:24.324480
MEAN_MOTION    = 15.54047258
ECCENTRICITY   = .0008863
INCLINATION    = 51.6315
RA_OF_ASC_NODE = 320.5076
ARG_OF_PERICENTER = 239.8027
MEAN_ANOMALY   = 120.2086

EPHEMERIS_TYPE = 0
CLASSIFICATION_TYPE = U
NORAD_CAT_ID   = 67687
ELEMENT_SET_NO = 999
REV_AT_EPOCH   = 818
BSTAR          = .84138E-3
MEAN_MOTION_DOT = .55523E-3
MEAN_MOTION_DDOT = 0

CCSDS_OMM_VERS = 2.0
CREATION_DATE  = 
ORIGINATOR     = 

OBJECT_NAME    = LEOPARD
OBJECT_ID      = 1998-067YE
CENTER_NAME    = EARTH
REF_FRAME      = TEME
TIME_SYSTEM    = UTC
MEAN_ELEMENT_THEORY = SGP/SGP4

EPOCH          = 2026-04-01T00:57:29.507040
MEAN_MOTION    = 15.54869785
ECCENTRICITY   = .0009081
INCLINATION    = 51.6313
RA_OF_ASC_NODE = 320.4106
ARG_OF_PERICENTER = 237.4781
MEAN_ANOMALY   = 122.5333

EPHEMERIS_TYPE = 0
CLASSIFICATION_TYPE = U
NORAD_CAT_ID   = 67688
ELEMENT_SET_NO = 999
REV_AT_EPOCH   = 818
BSTAR          = .92981E-3
MEAN_MOTION_DOT = .63364E-3
MEAN_MOTION_DDOT = 0

CCSDS_OMM_VERS = 2.0
CREATION_DATE  = 
ORIGINATOR     = 

OBJECT_NAME    = CREW DRAGON 12
OBJECT_ID      = 2026-031A
CENTER_NAME    = EARTH
REF_FRAME      = TEME
TIME_SYSTEM    = UTC
MEAN_ELEMENT_THEORY = SGP/SGP4

EPOCH          = 2026-04-01T10:10:04.736352
MEAN_MOTION    = 15.48695066
ECCENTRICITY   = .0006221
INCLINATION    = 51.6332
RA_OF_ASC_NODE = 319.9685
ARG_OF_PERICENTER = 259.3790
MEAN_ANOMALY   = 100.6498

EPHEMERIS_TYPE = 0
CLASSIFICATION_TYPE = U
NORAD_CAT_ID   = 67796
ELEMENT_SET_NO = 999
REV_AT_EPOCH   = 55982
BSTAR          = .15247E-3
MEAN_MOTION_DOT = .7873E-4
MEAN_MOTION_DDOT = 0

CCSDS_OMM_VERS = 2.0
CREATION_DATE  = 
ORIGINATOR     = 

OBJECT_NAME    = PROGRESS-MS 33
OBJECT_ID      = 2026-058A
CENTER_NAME    = EARTH
REF_FRAME      = TEME
TIME_SYSTEM    = UTC
MEAN_ELEMENT_THEORY = SGP/SGP4

EPOCH          = 2026-04-01T10:10:04.736352
MEAN_MOTION    = 15.48695066
ECCENTRICITY   = .0006221
INCLINATION    = 51.6332
RA_OF_ASC_NODE = 319.9685
ARG_OF_PERICENTER = 259.3790
MEAN_ANOMALY   = 100.6498

EPHEMERIS_TYPE = 0
CLASSIFICATION_TYPE = U
NORAD_CAT_ID   = 68319
ELEMENT_SET_NO = 999
REV_AT_EPOCH   = 133
BSTAR          = .15247E-3
MEAN_MOTION_DOT = .7873E-4
MEAN_MOTION_DDOT = 0

